{"type":"FeatureCollection","features":[{"type":"Feature","geometry":{"type":"Polygon","coordinates":[[[-74.0125,40.7158],[-74.014,40.7135],[-74.0158,40.7118],[-74.0171,40.7095],[-74.0184,40.7065],[-74.0176,40.7035],[-74.0158,40.701],[-74.013,40.7],[-74.01,40.7002],[-74.006,40.7008],[-74.0028,40.7022],[-74,40.7048],[-73.9982,40.7075],[-73.9977,40.7098],[-73.9992,40.7118],[-74.0015,40.7128],[-74.004,40.7138],[-74.008,40.7148],[-74.0105,40.7154],[-74.0125,40.7158]]]},"properties":{"kind":"land"}},{"type":"Feature","geometry":{"type":"Polygon","coordinates":[[[-74.0032,40.7027],[-74.0014,40.7018],[-74.001,40.7024],[-74.0028,40.7033],[-74.0032,40.7027]]]},"properties":{"kind":"pier"}},{"type":"Feature","geometry":{"type":"Polygon","coordinates":[[[-73.9999,40.705],[-73.9981,40.7043],[-73.9977,40.7049],[-73.9995,40.7056],[-73.9999,40.705]]]},"properties":{"kind":"pier"}},{"type":"Feature","geometry":{"type":"Polygon","coordinates":[[[-73.9983,40.7075],[-73.9962,40.707],[-73.9959,40.7076],[-73.998,40.7081],[-73.9983,40.7075]]]},"properties":{"kind":"pier"}},{"type":"Feature","geometry":{"type":"Polygon","coordinates":[[[-74.0168,40.71],[-74.0186,40.7096],[-74.0188,40.7102],[-74.017,40.7106],[-74.0168,40.71]]]},"properties":{"kind":"pier"}},{"type":"Feature","geometry":{"type":"Polygon","coordinates":[[[-74.0179,40.704],[-74.017,40.7011],[-74.015,40.7],[-74.0128,40.7003],[-74.014,40.7038],[-74.016,40.7046],[-74.0179,40.704]]]},"properties":{"kind":"park"}},{"type":"Feature","geometry":{"type":"Polygon","coordinates":[[[-74.0083,40.7133],[-74.0064,40.7118],[-74.0052,40.7128],[-74.0075,40.7146],[-74.0083,40.7133]]]},"properties":{"kind":"park"}},{"type":"Feature","geometry":{"type":"Polygon","coordinates":[[[-74.0147,40.7052],[-74.0139,40.7043],[-74.0132,40.7049],[-74.0141,40.7056],[-74.0147,40.7052]]]},"properties":{"kind":"park"}}]}